start=new Date('2022-10-11T00:00:00.000Z').valueOf();
sats=[{"MEAN_ELEMENT_THEORY":"SGP4","EPOCH":"2022-10-10T19:44:19.603104","ECCENTRICITY":"0.00013230","RA_OF_ASC_NODE":"119.5385","REV_AT_EPOCH":"14868","CENTER_NAME":"EARTH","TLE_LINE1":"1 45062U 20006U   22283.82244911  .00000340  00000-0  41695-4 0  9999","PERIOD":"95.593","COUNTRY_CODE":"US","RCS_SIZE":"LARGE","ELEMENT_SET_NO":"999","MEAN_MOTION":"15.06391577","EPHEMERIS_TYPE":"0","MEAN_MOTION_DDOT":"0.0000000000000","INCLINATION":"53.0542","REF_FRAME":"TEME","GP_ID":"214714591","OBJECT_ID":"2020-006U","APOAPSIS":"548.156","CLASSIFICATION_TYPE":"U","BSTAR":"0.00004169500000","ARG_OF_PERICENTER":"94.9265","MEAN_MOTION_DOT":"0.00000340","OBJECT_TYPE":"PAYLOAD","PERIAPSIS":"546.323","LAUNCH_DATE":"2020-01-29","DECAY_DATE":null,"MEAN_ANOMALY":"265.1875","FILE":"3601747","TIME_SYSTEM":"UTC","SEMIMAJOR_AXIS":"6925.374","SITE":"AFETR","NORAD_CAT_ID":"45062","OBJECT_NAME":"STARLINK-1171","TLE_LINE2":"2 45062  53.0542 119.5385 0001323  94.9265 265.1875 15.06391577148689"},{"TLE_LINE1":"1 45064U 20006W   22283.76899925  .00004557  00000-0  32459-3 0  9996","PERIOD":"95.592","COUNTRY_CODE":"US","RCS_SIZE":"LARGE","ELEMENT_SET_NO":"999","EPHEMERIS_TYPE":"0","MEAN_MOTION":"15.06403246","MEAN_MOTION_DDOT":"0.0000000000000","INCLINATION":"53.0540","MEAN_ELEMENT_THEORY":"SGP4","EPOCH":"2022-10-10T18:27:21.535200","ECCENTRICITY":"0.00014880","RA_OF_ASC_NODE":"99.7849","REV_AT_EPOCH":"14895","CENTER_NAME":"EARTH","DECAY_DATE":null,"MEAN_ANOMALY":"263.1748","FILE":"3601747","SEMIMAJOR_AXIS":"6925.339","TIME_SYSTEM":"UTC","NORAD_CAT_ID":"45064","SITE":"AFETR","TLE_LINE2":"2 45064  53.0540  99.7849 0001488  96.9411 263.1748 15.06403246148954","OBJECT_NAME":"STARLINK-1133","REF_FRAME":"TEME","OBJECT_ID":"2020-006W","GP_ID":"214714842","APOAPSIS":"548.234","CLASSIFICATION_TYPE":"U","BSTAR":"0.00032459000000","ARG_OF_PERICENTER":"96.9411","MEAN_MOTION_DOT":"0.00004557","OBJECT_TYPE":"PAYLOAD","LAUNCH_DATE":"2020-01-29","PERIAPSIS":"546.173"},{"GP_ID":"214715574","OBJECT_ID":"2020-006X","REF_FRAME":"TEME","APOAPSIS":"548.235","BSTAR":"0.00007576800000","CLASSIFICATION_TYPE":"U","ARG_OF_PERICENTER":"90.5724","MEAN_MOTION_DOT":"0.00000847","LAUNCH_DATE":"2020-01-29","PERIAPSIS":"546.181","OBJECT_TYPE":"PAYLOAD","DECAY_DATE":null,"MEAN_ANOMALY":"269.5435","FILE":"3601747","SEMIMAJOR_AXIS":"6925.343","TIME_SYSTEM":"UTC","SITE":"AFETR","NORAD_CAT_ID":"45065","OBJECT_NAME":"STARLINK-1139","TLE_LINE2":"2 45065  53.0561  99.7665 0001483  90.5724 269.5435 15.06401945148953","MEAN_ELEMENT_THEORY":"SGP4","EPOCH":"2022-10-10T18:32:39.314400","ECCENTRICITY":"0.00014830","REV_AT_EPOCH":"14895","RA_OF_ASC_NODE":"99.7665","CENTER_NAME":"EARTH","TLE_LINE1":"1 45065U 20006X   22283.77267725  .00000847  00000-0  75768-4 0  9994","PERIOD":"95.592","COUNTRY_CODE":"US","ELEMENT_SET_NO":"999","RCS_SIZE":"LARGE","MEAN_MOTION_DDOT":"0.0000000000000","INCLINATION":"53.0561","MEAN_MOTION":"15.06401945","EPHEMERIS_TYPE":"0"},{"TLE_LINE1":"1 45066U 20006Y   22283.87957687  .00001985  00000-0  15207-3 0  9994","COUNTRY_CODE":"US","PERIOD":"95.592","MEAN_MOTION_DDOT":"0.0000000000000","INCLINATION":"53.0547","EPHEMERIS_TYPE":"0","MEAN_MOTION":"15.06404815","ELEMENT_SET_NO":"999","RCS_SIZE":"LARGE","MEAN_ELEMENT_THEORY":"SGP4","ECCENTRICITY":"0.00010340","EPOCH":"2022-10-10T21:06:35.441568","CENTER_NAME":"EARTH","REV_AT_EPOCH":"14896","RA_OF_ASC_NODE":"99.2675","FILE":"3601747","DECAY_DATE":null,"MEAN_ANOMALY":"271.1103","SEMIMAJOR_AXIS":"6925.334","TIME_SYSTEM":"UTC","SITE":"AFETR","NORAD_CAT_ID":"45066","OBJECT_NAME":"STARLINK-1145","TLE_LINE2":"2 45066  53.0547  99.2675 0001034  89.0004 271.1103 15.06404815148961","APOAPSIS":"547.915","OBJECT_ID":"2020-006Y","GP_ID":"214714341","REF_FRAME":"TEME","BSTAR":"0.00015207000000","CLASSIFICATION_TYPE":"U","ARG_OF_PERICENTER":"89.0004","PERIAPSIS":"546.483","LAUNCH_DATE":"2020-01-29","OBJECT_TYPE":"PAYLOAD","MEAN_MOTION_DOT":"0.00001985"},{"OBJECT_TYPE":"PAYLOAD","LAUNCH_DATE":"2020-01-29","PERIAPSIS":"546.336","MEAN_MOTION_DOT":"0.00002665","ARG_OF_PERICENTER":"88.6166","CLASSIFICATION_TYPE":"U","BSTAR":"0.00019778000000","APOAPSIS":"548.151","REF_FRAME":"TEME","OBJECT_ID":"2020-006Z","GP_ID":"214714092","OBJECT_NAME":"STARLINK-1150","TLE_LINE2":"2 45067  53.0552  99.5201 0001310  88.6166 271.4973 15.06390185148969","SITE":"AFETR","NORAD_CAT_ID":"45067","TIME_SYSTEM":"UTC","SEMIMAJOR_AXIS":"6925.379","FILE":"3601747","MEAN_ANOMALY":"271.4973","DECAY_DATE":null,"CENTER_NAME":"EARTH","RA_OF_ASC_NODE":"99.5201","REV_AT_EPOCH":"14896","ECCENTRICITY":"0.00013100","EPOCH":"2022-10-10T19:52:17.575680","MEAN_ELEMENT_THEORY":"SGP4","MEAN_MOTION":"15.06390185","EPHEMERIS_TYPE":"0","INCLINATION":"53.0552","MEAN_MOTION_DDOT":"0.0000000000000","RCS_SIZE":"LARGE","ELEMENT_SET_NO":"999","COUNTRY_CODE":"US","PERIOD":"95.593","TLE_LINE1":"1 45067U 20006Z   22283.82798120  .00002665  00000-0  19778-3 0  9998"},{"MEAN_ELEMENT_THEORY":"SGP4","ECCENTRICITY":"0.00013200","EPOCH":"2022-10-10T20:49:16.781376","CENTER_NAME":"EARTH","REV_AT_EPOCH":"14896","RA_OF_ASC_NODE":"99.2093","TLE_LINE1":"1 45068U 20006AA  22283.86755534  .00001260  00000-0  10343-3 0  9994","COUNTRY_CODE":"US","PERIOD":"95.592","MEAN_MOTION_DDOT":"0.0000000000000","INCLINATION":"53.0536","EPHEMERIS_TYPE":"0","MEAN_MOTION":"15.06404465","ELEMENT_SET_NO":"999","RCS_SIZE":"LARGE","APOAPSIS":"548.114","OBJECT_ID":"2020-006AA","GP_ID":"214715343","REF_FRAME":"TEME","BSTAR":"0.00010343000000","CLASSIFICATION_TYPE":"U","ARG_OF_PERICENTER":"86.2005","LAUNCH_DATE":"2020-01-29","PERIAPSIS":"546.286","OBJECT_TYPE":"PAYLOAD","MEAN_MOTION_DOT":"0.00001260","FILE":"3601747","MEAN_ANOMALY":"273.9135","DECAY_DATE":null,"SEMIMAJOR_AXIS":"6925.335","TIME_SYSTEM":"UTC","NORAD_CAT_ID":"45068","SITE":"AFETR","TLE_LINE2":"2 45068  53.0536  99.2093 0001320  86.2005 273.9135 15.06404465148969","OBJECT_NAME":"STARLINK-1161"},{"RA_OF_ASC_NODE":"99.3564","REV_AT_EPOCH":"14896","CENTER_NAME":"EARTH","EPOCH":"2022-10-10T20:40:02.872704","ECCENTRICITY":"0.00013300","MEAN_ELEMENT_THEORY":"SGP4","RCS_SIZE":"LARGE","ELEMENT_SET_NO":"999","EPHEMERIS_TYPE":"0","MEAN_MOTION":"15.06405605","MEAN_MOTION_DDOT":"0.0000000000000","INCLINATION":"53.0526","PERIOD":"95.592","COUNTRY_CODE":"US","TLE_LINE1":"1 45071U 20006AD  22283.86114436  .00002647  00000-0  19652-3 0  9990","MEAN_MOTION_DOT":"0.00002647","OBJECT_TYPE":"PAYLOAD","PERIAPSIS":"546.275","LAUNCH_DATE":"2020-01-29","ARG_OF_PERICENTER":"95.2452","CLASSIFICATION_TYPE":"U","BSTAR":"0.00019652000000","REF_FRAME":"TEME","GP_ID":"214715074","OBJECT_ID":"2020-006AD","APOAPSIS":"548.117","OBJECT_NAME":"STARLINK-1167","TLE_LINE2":"2 45071  53.0526  99.3564 0001330  95.2452 264.8689 15.06405605148963","NORAD_CAT_ID":"45071","SITE":"AFETR","TIME_SYSTEM":"UTC","SEMIMAJOR_AXIS":"6925.331","DECAY_DATE":null,"MEAN_ANOMALY":"264.8689","FILE":"3601747"},{"RA_OF_ASC_NODE":"99.3497","REV_AT_EPOCH":"14896","CENTER_NAME":"EARTH","EPOCH":"2022-10-10T20:45:21.912480","ECCENTRICITY":"0.00014240","MEAN_ELEMENT_THEORY":"SGP4","RCS_SIZE":"LARGE","ELEMENT_SET_NO":"999","EPHEMERIS_TYPE":"0","MEAN_MOTION":"15.06394692","INCLINATION":"53.0539","MEAN_MOTION_DDOT":"0.0000000000000","PERIOD":"95.592","COUNTRY_CODE":"US","TLE_LINE1":"1 45072U 20006AE  22283.86483695 -.00000481  00000-0 -13382-4 0  9998","MEAN_MOTION_DOT":"-0.00000481","OBJECT_TYPE":"PAYLOAD","PERIAPSIS":"546.244","LAUNCH_DATE":"2020-01-29","ARG_OF_PERICENTER":"97.7642","CLASSIFICATION_TYPE":"U","BSTAR":"-0.00001338200000","REF_FRAME":"TEME","GP_ID":"214713843","OBJECT_ID":"2020-006AE","APOAPSIS":"548.216","TLE_LINE2":"2 45072  53.0539  99.3497 0001424  97.7642 262.3509 15.06394692148962","OBJECT_NAME":"STARLINK-1168","SITE":"AFETR","NORAD_CAT_ID":"45072","SEMIMAJOR_AXIS":"6925.365","TIME_SYSTEM":"UTC","DECAY_DATE":null,"MEAN_ANOMALY":"262.3509","FILE":"3601747"},{"RCS_SIZE":"LARGE","ELEMENT_SET_NO":"999","MEAN_MOTION":"15.06405381","EPHEMERIS_TYPE":"0","MEAN_MOTION_DDOT":"0.0000000000000","INCLINATION":"53.0526","PERIOD":"95.592","COUNTRY_CODE":"US","TLE_LINE1":"1 45073U 20006AF  22283.75793317  .00009075  00000-0  62728-3 0  9995","RA_OF_ASC_NODE":"99.8151","REV_AT_EPOCH":"14894","CENTER_NAME":"EARTH","EPOCH":"2022-10-10T18:11:25.425888","ECCENTRICITY":"0.00014400","MEAN_ELEMENT_THEORY":"SGP4","OBJECT_NAME":"STARLINK-1170","TLE_LINE2":"2 45073  53.0526  99.8151 0001440  75.0181 285.0967 15.06405381148942","SITE":"AFETR","NORAD_CAT_ID":"45073","TIME_SYSTEM":"UTC","SEMIMAJOR_AXIS":"6925.332","MEAN_ANOMALY":"285.0967","DECAY_DATE":null,"FILE":"3601747","MEAN_MOTION_DOT":"0.00009075","OBJECT_TYPE":"PAYLOAD","LAUNCH_DATE":"2020-01-29","PERIAPSIS":"546.200","ARG_OF_PERICENTER":"75.0181","CLASSIFICATION_TYPE":"U","BSTAR":"0.00062728000000","REF_FRAME":"TEME","GP_ID":"214714592","OBJECT_ID":"2020-006AF","APOAPSIS":"548.194"},{"FILE":"3601747","MEAN_ANOMALY":"262.1381","DECAY_DATE":null,"TIME_SYSTEM":"UTC","SEMIMAJOR_AXIS":"6925.366","NORAD_CAT_ID":"45074","SITE":"AFETR","OBJECT_NAME":"STARLINK-1172","TLE_LINE2":"2 45074  53.0561 100.1813 0001405  97.9767 262.1381 15.06394229148930","APOAPSIS":"548.204","OBJECT_ID":"2020-006AG","GP_ID":"214714843","REF_FRAME":"TEME","BSTAR":"0.00006054300000","CLASSIFICATION_TYPE":"U","ARG_OF_PERICENTER":"97.9767","PERIAPSIS":"546.258","LAUNCH_DATE":"2020-01-29","OBJECT_TYPE":"PAYLOAD","MEAN_MOTION_DOT":"0.00000620","TLE_LINE1":"1 45074U 20006AG  22283.67685550  .00000620  00000-0  60543-4 0  9997","COUNTRY_CODE":"US","PERIOD":"95.593","MEAN_MOTION_DDOT":"0.0000000000000","INCLINATION":"53.0561","MEAN_MOTION":"15.06394229","EPHEMERIS_TYPE":"0","ELEMENT_SET_NO":"999","RCS_SIZE":"LARGE","MEAN_ELEMENT_THEORY":"SGP4","ECCENTRICITY":"0.00014050","EPOCH":"2022-10-10T16:14:40.315200","CENTER_NAME":"EARTH","REV_AT_EPOCH":"14893","RA_OF_ASC_NODE":"100.1813"}];
